SL-16 R/B               
1 25400U 98043G   26023.61635597  .00000169  00000+0  89678-4 0  9997
2 25400  98.8184 336.6815 0010469 140.2909 219.9039 14.26037518432568
SL-16 R/B               
1 25407U 98045B   26023.65047127  .00000264  00000+0  15762-3 0  9994
2 25407  71.0110 276.2912 0005168  96.3759 263.7953 14.16185891420722
ISS (ZARYA)             
1 25544U 98067A   26023.39975333  .00015276  00000+0  27894-3 0  9998
2 25544  51.6326 296.2323 0007748  49.8407 310.3259 15.49583551549311
CZ-4B R/B               
1 25732U 99025C   26023.36343816  .00000157  00000+0  96570-4 0  9994
2 25732  98.6711  68.7007 0038121 114.7446 256.4901 14.18255199381748
OKEAN-O                 
1 25860U 99039A   26023.63360330  .00001596  00000+0  21657-3 0  9992
2 25860  97.9535  83.9611 0001858 100.3963 259.7458 14.80251712427726
SL-16 R/B               
1 25861U 99039B   26023.58860492  .00001189  00000+0  15762-3 0  9999
2 25861  98.0062  82.7303 0015793  47.6102 312.6444 14.81659748430180
DELTA 2 R/B             
1 25876U 99041E   26023.62911272  .00004008  00000+0  68158-3 0  9996
2 25876  51.7625 121.2131 0503036 215.2908 141.3738 14.11614569356662
HELIOS 1B               
1 25977U 99064A   26023.64742113  .00002916  00000+0  32810-3 0  9993
2 25977  98.1734 284.5587 0001154 135.7243 224.4065 14.87489545678569
TERRA                   
1 25994U 99068A   26023.66917248  .00000934  00000+0  19966-3 0  9996
2 25994  97.9686  78.8024 0001752 359.0474 161.1456 14.60959299388504
SL-16 R/B               
1 26070U 00006B   26023.51284640  .00000166  00000+0  10855-3 0  9998
2 26070  71.0004 192.8250 0018690 252.3495 107.5587 14.15813340342169
TITAN 4B R/B            
1 26474U 00047B   26023.56881159  .00006364  00000+0  40173-3 0  9996
2 26474  67.9891 167.3480 0036870  91.8687 268.6686 15.09149021386109
ENVISAT                 
1 27386U 02009A   26023.64662421  .00000274  00000+0  10255-3 0  9999
2 27386  98.3657 338.3380 0001214  91.7875  81.0120 14.39017783252698
