CCSDS_OMM_VERS = 2.0
CREATION_DATE  = 
ORIGINATOR     = 

OBJECT_NAME    = SL-16 R/B
OBJECT_ID      = 1998-043G
CENTER_NAME    = EARTH
REF_FRAME      = TEME
TIME_SYSTEM    = UTC
MEAN_ELEMENT_THEORY = SGP/SGP4

EPOCH          = 2026-01-23T14:47:33.155808
MEAN_MOTION    = 14.26037518
ECCENTRICITY   = .00104691
INCLINATION    = 98.8184
RA_OF_ASC_NODE = 336.6815
ARG_OF_PERICENTER = 140.2909
MEAN_ANOMALY   = 219.9039

EPHEMERIS_TYPE = 0
CLASSIFICATION_TYPE = U
NORAD_CAT_ID   = 25400
ELEMENT_SET_NO = 999
REV_AT_EPOCH   = 43256
BSTAR          = .89678155E-4
MEAN_MOTION_DOT = .169E-5
MEAN_MOTION_DDOT = 0

CCSDS_OMM_VERS = 2.0
CREATION_DATE  = 
ORIGINATOR     = 

OBJECT_NAME    = SL-16 R/B
OBJECT_ID      = 1998-045B
CENTER_NAME    = EARTH
REF_FRAME      = TEME
TIME_SYSTEM    = UTC
MEAN_ELEMENT_THEORY = SGP/SGP4

EPOCH          = 2026-01-23T15:36:40.717728
MEAN_MOTION    = 14.16185891
ECCENTRICITY   = .00051686
INCLINATION    = 71.0110
RA_OF_ASC_NODE = 276.2912
ARG_OF_PERICENTER = 96.3759
MEAN_ANOMALY   = 263.7953

EPHEMERIS_TYPE = 0
CLASSIFICATION_TYPE = U
NORAD_CAT_ID   = 25407
ELEMENT_SET_NO = 999
REV_AT_EPOCH   = 42072
BSTAR          = .15762358E-3
MEAN_MOTION_DOT = .264E-5
MEAN_MOTION_DDOT = 0

CCSDS_OMM_VERS = 2.0
CREATION_DATE  = 
ORIGINATOR     = 

OBJECT_NAME    = ISS (ZARYA)
OBJECT_ID      = 1998-067A
CENTER_NAME    = EARTH
REF_FRAME      = TEME
TIME_SYSTEM    = UTC
MEAN_ELEMENT_THEORY = SGP/SGP4

EPOCH          = 2026-01-23T09:35:38.687712
MEAN_MOTION    = 15.49583551
ECCENTRICITY   = .00077484
INCLINATION    = 51.6326
RA_OF_ASC_NODE = 296.2323
ARG_OF_PERICENTER = 49.8407
MEAN_ANOMALY   = 310.3259

EPHEMERIS_TYPE = 0
CLASSIFICATION_TYPE = U
NORAD_CAT_ID   = 25544
ELEMENT_SET_NO = 999
REV_AT_EPOCH   = 54931
BSTAR          = .27894422E-3
MEAN_MOTION_DOT = .15276E-3
MEAN_MOTION_DDOT = 0

CCSDS_OMM_VERS = 2.0
CREATION_DATE  = 
ORIGINATOR     = 

OBJECT_NAME    = CZ-4B R/B
OBJECT_ID      = 1999-025C
CENTER_NAME    = EARTH
REF_FRAME      = TEME
TIME_SYSTEM    = UTC
MEAN_ELEMENT_THEORY = SGP/SGP4

EPOCH          = 2026-01-23T08:43:21.057024
MEAN_MOTION    = 14.18255199
ECCENTRICITY   = .00381218
INCLINATION    = 98.6711
RA_OF_ASC_NODE = 68.7007
ARG_OF_PERICENTER = 114.7446
MEAN_ANOMALY   = 256.4901

EPHEMERIS_TYPE = 0
CLASSIFICATION_TYPE = U
NORAD_CAT_ID   = 25732
ELEMENT_SET_NO = 999
REV_AT_EPOCH   = 38174
BSTAR          = .96569937E-4
MEAN_MOTION_DOT = .157E-5
MEAN_MOTION_DDOT = 0

CCSDS_OMM_VERS = 2.0
CREATION_DATE  = 
ORIGINATOR     = 

OBJECT_NAME    = OKEAN-O
OBJECT_ID      = 1999-039A
CENTER_NAME    = EARTH
REF_FRAME      = TEME
TIME_SYSTEM    = UTC
MEAN_ELEMENT_THEORY = SGP/SGP4

EPOCH          = 2026-01-23T15:12:23.325120
MEAN_MOTION    = 14.80251712
ECCENTRICITY   = .00018587
INCLINATION    = 97.9535
RA_OF_ASC_NODE = 83.9611
ARG_OF_PERICENTER = 100.3963
MEAN_ANOMALY   = 259.7458

EPHEMERIS_TYPE = 0
CLASSIFICATION_TYPE = U
NORAD_CAT_ID   = 25860
ELEMENT_SET_NO = 999
REV_AT_EPOCH   = 42772
BSTAR          = .21656543E-3
MEAN_MOTION_DOT = .1596E-4
MEAN_MOTION_DDOT = 0

CCSDS_OMM_VERS = 2.0
CREATION_DATE  = 
ORIGINATOR     = 

OBJECT_NAME    = SL-16 R/B
OBJECT_ID      = 1999-039B
CENTER_NAME    = EARTH
REF_FRAME      = TEME
TIME_SYSTEM    = UTC
MEAN_ELEMENT_THEORY = SGP/SGP4

EPOCH          = 2026-01-23T14:07:35.465088
MEAN_MOTION    = 14.81659748
ECCENTRICITY   = .00157932
INCLINATION    = 98.0062
RA_OF_ASC_NODE = 82.7303
ARG_OF_PERICENTER = 47.6102
MEAN_ANOMALY   = 312.6444

EPHEMERIS_TYPE = 0
CLASSIFICATION_TYPE = U
NORAD_CAT_ID   = 25861
ELEMENT_SET_NO = 999
REV_AT_EPOCH   = 43018
BSTAR          = .15761637E-3
MEAN_MOTION_DOT = .1189E-4
MEAN_MOTION_DDOT = 0

CCSDS_OMM_VERS = 2.0
CREATION_DATE  = 
ORIGINATOR     = 

OBJECT_NAME    = DELTA 2 R/B
OBJECT_ID      = 1999-041E
CENTER_NAME    = EARTH
REF_FRAME      = TEME
TIME_SYSTEM    = UTC
MEAN_ELEMENT_THEORY = SGP/SGP4

EPOCH          = 2026-01-23T15:05:55.339008
MEAN_MOTION    = 14.11614569
ECCENTRICITY   = .05030365
INCLINATION    = 51.7625
RA_OF_ASC_NODE = 121.2131
ARG_OF_PERICENTER = 215.2908
MEAN_ANOMALY   = 141.3738

EPHEMERIS_TYPE = 0
CLASSIFICATION_TYPE = U
NORAD_CAT_ID   = 25876
ELEMENT_SET_NO = 999
REV_AT_EPOCH   = 35666
BSTAR          = .68158469E-3
MEAN_MOTION_DOT = .4008E-4
MEAN_MOTION_DDOT = 0

CCSDS_OMM_VERS = 2.0
CREATION_DATE  = 
ORIGINATOR     = 

OBJECT_NAME    = HELIOS 1B
OBJECT_ID      = 1999-064A
CENTER_NAME    = EARTH
REF_FRAME      = TEME
TIME_SYSTEM    = UTC
MEAN_ELEMENT_THEORY = SGP/SGP4

EPOCH          = 2026-01-23T15:32:17.185632
MEAN_MOTION    = 14.87489545
ECCENTRICITY   = .00011545
INCLINATION    = 98.1734
RA_OF_ASC_NODE = 284.5587
ARG_OF_PERICENTER = 135.7243
MEAN_ANOMALY   = 224.4065

EPHEMERIS_TYPE = 0
CLASSIFICATION_TYPE = U
NORAD_CAT_ID   = 25977
ELEMENT_SET_NO = 999
REV_AT_EPOCH   = 67856
BSTAR          = .32810012E-3
MEAN_MOTION_DOT = .2916E-4
MEAN_MOTION_DDOT = 0

CCSDS_OMM_VERS = 2.0
CREATION_DATE  = 
ORIGINATOR     = 

OBJECT_NAME    = TERRA
OBJECT_ID      = 1999-068A
CENTER_NAME    = EARTH
REF_FRAME      = TEME
TIME_SYSTEM    = UTC
MEAN_ELEMENT_THEORY = SGP/SGP4

EPOCH          = 2026-01-23T16:03:36.502272
MEAN_MOTION    = 14.60959299
ECCENTRICITY   = .00017527
INCLINATION    = 97.9686
RA_OF_ASC_NODE = 78.8024
ARG_OF_PERICENTER = 359.0474
MEAN_ANOMALY   = 161.1456

EPHEMERIS_TYPE = 0
CLASSIFICATION_TYPE = U
NORAD_CAT_ID   = 25994
ELEMENT_SET_NO = 999
REV_AT_EPOCH   = 38850
BSTAR          = .19966419E-3
MEAN_MOTION_DOT = .934E-5
MEAN_MOTION_DDOT = 0

CCSDS_OMM_VERS = 2.0
CREATION_DATE  = 
ORIGINATOR     = 

OBJECT_NAME    = SL-16 R/B
OBJECT_ID      = 2000-006B
CENTER_NAME    = EARTH
REF_FRAME      = TEME
TIME_SYSTEM    = UTC
MEAN_ELEMENT_THEORY = SGP/SGP4

EPOCH          = 2026-01-23T12:18:29.928960
MEAN_MOTION    = 14.15813340
ECCENTRICITY   = .001869
INCLINATION    = 71.0004
RA_OF_ASC_NODE = 192.8250
ARG_OF_PERICENTER = 252.3495
MEAN_ANOMALY   = 107.5587

EPHEMERIS_TYPE = 0
CLASSIFICATION_TYPE = U
NORAD_CAT_ID   = 26070
ELEMENT_SET_NO = 999
REV_AT_EPOCH   = 34216
BSTAR          = .10854652E-3
MEAN_MOTION_DOT = .166E-5
MEAN_MOTION_DDOT = 0

CCSDS_OMM_VERS = 2.0
CREATION_DATE  = 
ORIGINATOR     = 

OBJECT_NAME    = TITAN 4B R/B
OBJECT_ID      = 2000-047B
CENTER_NAME    = EARTH
REF_FRAME      = TEME
TIME_SYSTEM    = UTC
MEAN_ELEMENT_THEORY = SGP/SGP4

EPOCH          = 2026-01-23T13:39:05.321376
MEAN_MOTION    = 15.09149021
ECCENTRICITY   = .00368709
INCLINATION    = 67.9891
RA_OF_ASC_NODE = 167.3480
ARG_OF_PERICENTER = 91.8687
MEAN_ANOMALY   = 268.6686

EPHEMERIS_TYPE = 0
CLASSIFICATION_TYPE = U
NORAD_CAT_ID   = 26474
ELEMENT_SET_NO = 999
REV_AT_EPOCH   = 38610
BSTAR          = .40172813E-3
MEAN_MOTION_DOT = .6364E-4
MEAN_MOTION_DDOT = 0

CCSDS_OMM_VERS = 2.0
CREATION_DATE  = 
ORIGINATOR     = 

OBJECT_NAME    = ENVISAT
OBJECT_ID      = 2002-009A
CENTER_NAME    = EARTH
REF_FRAME      = TEME
TIME_SYSTEM    = UTC
MEAN_ELEMENT_THEORY = SGP/SGP4

EPOCH          = 2026-01-23T15:31:08.331744
MEAN_MOTION    = 14.39017783
ECCENTRICITY   = .00012146
INCLINATION    = 98.3657
RA_OF_ASC_NODE = 338.3380
ARG_OF_PERICENTER = 91.7875
MEAN_ANOMALY   = 81.0120

EPHEMERIS_TYPE = 0
CLASSIFICATION_TYPE = U
NORAD_CAT_ID   = 27386
ELEMENT_SET_NO = 999
REV_AT_EPOCH   = 25269
BSTAR          = .10255117E-3
MEAN_MOTION_DOT = .274E-5
MEAN_MOTION_DDOT = 0

